[{"OBJECT_NAME":"OUTPOST MISSION 1","OBJECT_ID":"2023-084BK","EPOCH":"2026-03-09T23:19:35.444064","MEAN_MOTION":15.70083334,"ECCENTRICITY":0.00047289,"INCLINATION":97.5968,"RA_OF_ASC_NODE":222.1792,"ARG_OF_PERICENTER":254.2575,"MEAN_ANOMALY":105.8165,"EPHEMERIS_TYPE":0,"CLASSIFICATION_TYPE":"U","NORAD_CAT_ID":56226,"ELEMENT_SET_NO":999,"REV_AT_EPOCH":15332,"BSTAR":0.000839791,"MEAN_MOTION_DOT":0.00102103,"MEAN_MOTION_DDOT":0},{"OBJECT_NAME":"STARLINK-11174 [DTC]","OBJECT_ID":"2024-141M","EPOCH":"2026-03-09T10:28:05.788704","MEAN_MOTION":15.69697768,"ECCENTRICITY":0.00013156,"INCLINATION":53.1576,"RA_OF_ASC_NODE":87.4648,"ARG_OF_PERICENTER":104.2865,"MEAN_ANOMALY":255.8299,"EPHEMERIS_TYPE":0,"CLASSIFICATION_TYPE":"U","NORAD_CAT_ID":60409,"ELEMENT_SET_NO":999,"REV_AT_EPOCH":9165,"BSTAR":2.4104013e-5,"MEAN_MOTION_DOT":2.331e-5,"MEAN_MOTION_DDOT":0}]
